{
  "links" : {
    "next" : "https://api.nasa.gov/neo/rest/v1/feed?start_date=2004-06-23&end_date=2004-06-23&detailed=true&api_key=t0TVs3DtDT2H8Oy2Zy8m2eVrNsAVKAexjcZXUckd",
    "prev" : "https://api.nasa.gov/neo/rest/v1/feed?start_date=2004-06-21&end_date=2004-06-21&detailed=true&api_key=t0TVs3DtDT2H8Oy2Zy8m2eVrNsAVKAexjcZXUckd",
    "self" : "https://api.nasa.gov/neo/rest/v1/feed?start_date=2004-06-22&end_date=2004-06-22&detailed=true&api_key=t0TVs3DtDT2H8Oy2Zy8m2eVrNsAVKAexjcZXUckd"
  },
  "element_count" : 7,
  "near_earth_objects" : {
    "2004-06-22" : [ {
      "links" : {
        "self" : "https://api.nasa.gov/neo/rest/v1/neo/3752903?api_key=t0TVs3DtDT2H8Oy2Zy8m2eVrNsAVKAexjcZXUckd"
      },
      "neo_reference_id" : "3752903",
      "name" : "(2016 JH12)",
      "nasa_jpl_url" : "http://ssd.jpl.nasa.gov/sbdb.cgi?sstr=3752903",
      "absolute_magnitude_h" : 22.3,
      "estimated_diameter" : {
        "kilometers" : {
          "estimated_diameter_min" : 0.0921626549,
          "estimated_diameter_max" : 0.2060819612
        },
        "meters" : {
          "estimated_diameter_min" : 92.1626548503,
          "estimated_diameter_max" : 206.0819612321
        },
        "miles" : {
          "estimated_diameter_min" : 0.057267201,
          "estimated_diameter_max" : 0.1280533543
        },
        "feet" : {
          "estimated_diameter_min" : 302.370924539,
          "estimated_diameter_max" : 676.1219416887
        }
      },
      "is_potentially_hazardous_asteroid" : false,
      "close_approach_data" : [ {
        "close_approach_date" : "2004-06-22",
        "epoch_date_close_approach" : 1087887600000,
        "relative_velocity" : {
          "kilometers_per_second" : "10.3938821092",
          "kilometers_per_hour" : "37417.9755929587",
          "miles_per_hour" : "23250.0748899693"
        },
        "miss_distance" : {
          "astronomical" : "0.2966017694",
          "lunar" : "115.3780899048",
          "kilometers" : "44370992",
          "miles" : "27570858"
        },
        "orbiting_body" : "Earth"
      } ],
      "orbital_data" : {
        "orbit_id" : "13",
        "orbit_determination_date" : "2017-06-15 06:19:18",
        "orbit_uncertainty" : "3",
        "minimum_orbit_intersection" : ".204617",
        "jupiter_tisserand_invariant" : "6.219",
        "epoch_osculation" : "2458000.5",
        "eccentricity" : ".3346898740686247",
        "semi_major_axis" : ".9544155606965276",
        "inclination" : "18.03497987336542",
        "ascending_node_longitude" : "218.9212047411505",
        "orbital_period" : "340.5686705205546",
        "perihelion_distance" : ".6349823368778709",
        "perihelion_argument" : "193.3561404390003",
        "aphelion_distance" : "1.273848784515184",
        "perihelion_time" : "2458048.941342772249",
        "mean_anomaly" : "308.7948102467723",
        "mean_motion" : "1.057055540222607",
        "equinox" : "J2000"
      }
    } ]
  }
}